{"fetched_at":"2026-03-30T06:02:59Z","count":15439,"tles":[{"name":"STARLINK-33802","line1":"1 64392U 25127Y   26087.65443088  .00026910  00000+0  98342-3 0  9998","line2":"2 64392  43.0000  73.0135 0000901 251.0992 108.9763 15.27594008 45419","category":"Starlink"}]}